RADUGA 1                
1 08513U 75123A   24359.89908212  .00000022  00000+0  00000+0 0  9999
2 08513   4.1981 275.3182 0006099 270.2107 298.3489  1.00286507189407
RADUGA 2                
1 09416U 76092A   24359.90255734 -.00000146  00000+0  00000+0 0  9992
2 09416   4.8707 277.7209 0029359  21.6819 203.1670  1.00288806123937
RADUGA 3                
1 10159U 77071A   24359.74771532 -.00000308  00000+0  00000+0 0  9997
2 10159   5.5033 280.8734 0009161 283.5966 266.0175  1.00227901171639
RADUGA 4                
1 10987U 78073A   24359.89360865  .00000179  00000+0  00000+0 0  9993
2 10987   6.1567 285.1341 0010650  15.4860 153.4229  1.00285879114194
RADUGA 5                
1 11343U 79035A   24359.90177542 -.00000103  00000+0  00000+0 0  9997
2 11343   6.6446 288.4123 0004049 215.5675 354.5149  1.00249664123948
RADUGA 6                
1 11708U 80016A   24359.89908212  .00000004  00000+0  00000+0 0  9996
2 11708   7.0432 292.0565 0002373 289.4557 262.5856  1.00341476116759
RADUGA 7                
1 12003U 80081A   24359.68316469  .00000109  00000+0  00000+0 0  9997
2 12003   7.2550 294.3467 0011446 300.1384 290.7118  1.00281753117898
RADUGA 8                
1 12351U 81027A   24359.89708387  .00000068  00000+0  00000+0 0  9995
2 12351   7.5952 294.7481 0080542 257.6882 281.5643  1.00413633117137
RADUGA 9                
1 12618U 81069A   24359.89543314  .00000139  00000+0  00000+0 0  9993
2 12618   7.8623 298.3323 0001415 216.2296 309.6345  1.00331405 41939
RADUGA 10               
1 12897U 81102A   24359.90281799 -.00000163  00000+0  00000+0 0  9996
2 12897   7.9656 299.4863 0004012 236.2752 328.4922  1.00268496111938
RADUGA 11               
1 13669U 82113A   24359.71643707 -.00000154  00000+0  00000+0 0  9997
2 13669  10.2757 314.8749 0041361 279.7875 288.8193  0.97710246116266
RADUGA 12               
1 13974U 83028A   24359.90029845 -.00000051  00000+0  00000+0 0  9990
2 13974   9.3148 310.2420 0001363 312.6242 227.4309  1.00294215163973
RADUGA 13               
1 14307U 83088A   24359.49285472  .00000007  00000+0  00000+0 0  9991
2 14307  10.5723 316.3114 0015405  52.8306 158.0120  0.98172658113641
RADUGA 14               
1 14725U 84016A   24359.90255734 -.00000153  00000+0  00000+0 0  9994
2 14725   9.6190 314.4524 0002249 188.9043 359.1280  1.00253799112692
RADUGA 15               
1 15057U 84063A   24359.89899524 -.00000011  00000+0  00000+0 0  9997
2 15057   9.7678 315.4579 0003999 220.0891 307.6997  1.00377655135692
RADUGA 16               
1 15946U 85070A   24359.80438230 -.00000274  00000+0  00000+0 0  9998
2 15946  10.3602 320.3581 0002573 266.1009 106.3618  1.00210374116823
RADUGA 17               
1 16250U 85107A   24359.80307910 -.00000273  00000+0  00000+0 0  9997
2 16250  10.5252 321.8669 0013702 222.3203 141.1410  1.00151836146270
RADUGA 18               
1 16497U 86007A   24359.46972866  .00000064  00000+0  00000+0 0  9997
2 16497  11.3962 324.7021 0072120 188.8409 172.4451  0.98810526140581
RADUGA 19               
1 17046U 86082A   24359.10404833 -.00000107  00000+0  00000+0 0  9995
2 17046  11.9527 328.8283 0011803 184.7548 357.9100  0.98461052137594
RADUGA 20               
1 17611U 87028A   24359.32271485 -.00000094  00000+0  00000+0 0  9998
2 17611  14.0490 332.1124 0028647 164.2407   6.6602  0.95960865133132
RADUGA 21               
1 18631U 87100A   24359.50517594  .00000001  00000+0  00000+0 0  9993
2 18631  12.0798 329.1297 0001917 216.4835 331.8944  1.00185515135678
RADUGA 22               
1 19596U 88095A   24359.78998307 -.00000280  00000+0  00000+0 0  9993
2 19596  12.2245 333.7892 0006461 195.3603 303.1668  1.00378026116245
RADUGA 23               
1 19928U 89030A   24359.60604427  .00000143  00000+0  00000+0 0  9997
2 19928  12.4335 335.6394 0021127 195.8683 170.3769  1.00292935129449
RADUGA-1 1              
1 20083U 89048A   24358.26034537 -.00000203  00000+0  00000+0 0  9998
2 20083  13.2898 338.8474 0019812 141.9275  23.6251  0.98709917125932
RADUGA 24               
1 20367U 89098A   24359.71661438  .00000063  00000+0  00000+0 0  9998
2 20367  13.0872 337.6624 0003029 248.3183 183.6627  1.00217817127566
RADUGA 25               
1 20499U 90016A   24359.87327860 -.00000284  00000+0  00000+0 0  9997
2 20499  12.8882 338.4615 0005324 209.1913 157.1955  1.00352412127500
RADUGA 26               
1 21016U 90112A   24359.64591090 -.00000109  00000+0  00000+0 0  9999
2 21016  13.3222 341.7231 0004015 129.4915 290.4080  1.00322223124855
RADUGA-1 2              
1 21038U 90116A   24360.03878608  .00000102  00000+0  00000+0 0  9997
2 21038  13.3620 341.7685 0005481 139.4878  36.5826  1.00287874124502
RADUGA 27               
1 21132U 91014A   24359.60812941  .00000136  00000+0  00000+0 0  9996
2 21132  13.8443 340.9522 0001339 215.7330 156.8155  1.00194775123906
RADUGA 28               
1 21821U 91087A   24359.90829146 -.00000354  00000+0  00000+0 0  9992
2 21821  13.7664 344.9715 0005935 180.8497   7.7868  1.00232126120911
RADUGA 29               
1 22557U 93013A   24359.67511433  .00000094  00000+0  00000+0 0  9991
2 22557  14.1353 349.1280 0005225 167.0695 198.6767  1.00232935116271
RADUGA 30               
1 22836U 93062A   24359.54270833 -.00000058  00000+0  00000+0 0  9998
2 22836  14.2609 351.1452 0004116 288.8821  79.9828  1.00262131114369
RADUGA-1 3              
1 22981U 94008A   24359.82087009 -.00000245  00000+0  00000+0 0  9990
2 22981  14.3850 352.2507 0002698 205.0821 284.3404  1.00229759113074
RADUGA 31               
1 23010U 94012A   24359.04096795 -.00000001  00000+0  00000+0 0  9995
2 23010  14.3554 352.2697 0002991 158.5666  19.7584  1.00333856112931
RADUGA 32               
1 23448U 94087A   24360.04313010 -.00000068  00000+0  00000+0 0  9999
2 23448  14.4504 355.0150 0008350 241.0792 305.6406  1.00262884127534
RADUGA-1 4              
1 25642U 99010A   24359.67850267  .00000134  00000+0  00000+0 0  9998
2 25642  15.4906   6.1074 0007030 256.0003 111.1651  1.00285091 94544
RADUGA-1 5              
1 26477U 00049A   24359.68032716  .00000121  00000+0  00000+0 0  9997
2 26477  13.6575  11.9967 0001652 117.8350 253.3949  1.00289276 89015
RADUGA-1 6              
1 26936U 01045A   24359.81498174 -.00000154  00000+0  00000+0 0  9990
2 26936  14.0994  18.5308 0019291 196.4931 175.3117  0.97745688 83331
RADUGA-1 7              
1 28194U 04010A   24359.79968103 -.00000356  00000+0  00000+0 0  9998
2 28194  13.0494  24.9701 0005694 219.2661 249.0428  1.00345338 76011
RADUGA-1M 1             
1 32373U 07058A   24359.52977455 -.00000174  00000+0  00000+0 0  9996
2 32373   8.9641  56.7918 0002321 212.7942 184.6174  0.99401324 47036
RADUGA-1 8              
1 34264U 09010A   24359.75432309  .00000117  00000+0  00000+0 0  9992
2 34264  11.0514  46.6156 0010284  16.9969 359.1172  0.99816358 57791
RADUGA-1M 2             
1 36358U 10002A   24359.90281799 -.00000160  00000+0  00000+0 0  9992
2 36358   2.2142  85.9017 0004787 198.3920 219.6356  1.00272086 44686
RADUGA-1M 3             
1 39375U 13062A   24359.82141089  .00000176  00000+0  00000+0 0  9997
2 39375   4.5886  78.9950 0002030 342.0748   3.4750  1.00273092 40693
